ONEWEB-0397             
1 50477U 21132J   26077.28193178  .00000066  00000+0  13517-3 0  9994
2 50477  87.9253 353.5112 0001572  80.6944 279.4366 13.18687106209633
ONEWEB-0398             
1 50478U 21132K   26077.26539019  .00000475  00000+0  13039-2 0  9993
2 50478  87.8883  39.1278 0002186  74.9122 285.2248 13.11416203203693
ONEWEB-0399             
1 50479U 21132L   26077.25181953  .00000257  00000+0  68825-3 0  9995
2 50479  87.8888  39.1400 0001349  75.5594 284.5683 13.11418318203689
ONEWEB-0400             
1 50480U 21132M   26077.26048749  .00000139  00000+0  31901-3 0  9997
2 50480  87.9255 353.5052 0002006  76.0104 284.1251 13.18686901209629
ONEWEB-0401             
1 50481U 21132N   26077.30501987  .00000016  00000+0  71268-5 0  9997
2 50481  87.9255 353.4926 0001760  84.2834 275.8499 13.18685775209636
ONEWEB-0402             
1 50482U 21132P   26077.26872268  .00000040  00000+0  68038-4 0  9993
2 50482  87.9252 353.4911 0001587  94.7945 265.3368 13.18684806209659
ONEWEB-0403             
1 50483U 21132Q   26077.29347845  .00000052  00000+0  98211-4 0  9994
2 50483  87.9254 353.5094 0001760  74.8772 285.2555 13.18686978209612
ONEWEB-0404             
1 50484U 21132R   26077.15684831 -.00000672  00000+0 -19328-2 0  9999
2 50484  87.8876  39.1653 0001704  72.3124 287.8190 13.11417406203766
ONEWEB-0405             
1 50485U 21132S   26077.15656537  .00000067  00000+0  13776-3 0  9990
2 50485  87.9254 353.5205 0002267  71.0051 289.1327 13.18685652209999
ONEWEB-0406             
1 50486U 21132T   26077.29842031  .00000078  00000+0  16603-3 0  9996
2 50486  87.9244 353.5170 0001529  64.6952 295.4339 13.18686389209641
ONEWEB-0407             
1 50487U 21132U   26077.29182842  .00000055  00000+0  10624-3 0  9996
2 50487  87.9254 353.5026 0001879  83.2466 276.8880 13.18686314209583
ONEWEB-0409             
1 50488U 21132V   26077.30774221 -.00000447  00000+0 -12960-2 0  9998
2 50488  87.8886  39.1167 0001808  72.5610 287.5715 13.11415908203673
ONEWEB-0412             
1 50489U 21132W   26077.28028142  .00000100  00000+0  21996-3 0  9994
2 50489  87.9252 353.5182 0001637  86.3962 273.7357 13.18685699209673
ONEWEB-0413             
1 50490U 21132X   26077.28523088 -.00000008  00000+0 -53439-4 0  9992
2 50490  87.9241 353.5210 0001843  88.5391 271.5952 13.18686538209618
ONEWEB-0414             
1 50491U 21132Y   26077.27036912  .00000068  00000+0  13886-3 0  9992
2 50491  87.9254 353.4963 0001644  80.9461 279.1857 13.18685905209648
ONEWEB-0417             
1 50492U 21132Z   26077.27862385  .00000069  00000+0  14136-3 0  9994
2 50492  87.9247 353.5219 0001716  71.3566 288.7752 13.18684947209629
ONEWEB-0418             
1 50493U 21132AA  26077.28839080  .00000068  00000+0  13882-3 0  9998
2 50493  87.9252 353.5110 0001667  66.2093 293.9214 13.18685720209686
