[{"OBJECT_NAME":"ONEWEB-0397","OBJECT_ID":"2021-132J","EPOCH":"2026-03-18T06:45:58.905792","MEAN_MOTION":13.18687106,"ECCENTRICITY":0.00015724,"INCLINATION":87.9253,"RA_OF_ASC_NODE":353.5112,"ARG_OF_PERICENTER":80.6944,"MEAN_ANOMALY":279.4366,"EPHEMERIS_TYPE":0,"CLASSIFICATION_TYPE":"U","NORAD_CAT_ID":50477,"ELEMENT_SET_NO":999,"REV_AT_EPOCH":20963,"BSTAR":0.00013517174,"MEAN_MOTION_DOT":6.6e-7,"MEAN_MOTION_DDOT":0},{"OBJECT_NAME":"ONEWEB-0398","OBJECT_ID":"2021-132K","EPOCH":"2026-03-18T06:22:09.712416","MEAN_MOTION":13.11416203,"ECCENTRICITY":0.00021866,"INCLINATION":87.8883,"RA_OF_ASC_NODE":39.1278,"ARG_OF_PERICENTER":74.9122,"MEAN_ANOMALY":285.2248,"EPHEMERIS_TYPE":0,"CLASSIFICATION_TYPE":"U","NORAD_CAT_ID":50478,"ELEMENT_SET_NO":999,"REV_AT_EPOCH":20369,"BSTAR":0.0013039474,"MEAN_MOTION_DOT":4.75e-6,"MEAN_MOTION_DDOT":0},{"OBJECT_NAME":"ONEWEB-0399","OBJECT_ID":"2021-132L","EPOCH":"2026-03-18T06:02:37.207392","MEAN_MOTION":13.11418318,"ECCENTRICITY":0.00013495,"INCLINATION":87.8888,"RA_OF_ASC_NODE":39.14,"ARG_OF_PERICENTER":75.5594,"MEAN_ANOMALY":284.5683,"EPHEMERIS_TYPE":0,"CLASSIFICATION_TYPE":"U","NORAD_CAT_ID":50479,"ELEMENT_SET_NO":999,"REV_AT_EPOCH":20368,"BSTAR":0.00068825216,"MEAN_MOTION_DOT":2.57e-6,"MEAN_MOTION_DDOT":0},{"OBJECT_NAME":"ONEWEB-0400","OBJECT_ID":"2021-132M","EPOCH":"2026-03-18T06:15:06.119136","MEAN_MOTION":13.18686901,"ECCENTRICITY":0.00020066,"INCLINATION":87.9255,"RA_OF_ASC_NODE":353.5052,"ARG_OF_PERICENTER":76.0104,"MEAN_ANOMALY":284.1251,"EPHEMERIS_TYPE":0,"CLASSIFICATION_TYPE":"U","NORAD_CAT_ID":50480,"ELEMENT_SET_NO":999,"REV_AT_EPOCH":20962,"BSTAR":0.00031901168,"MEAN_MOTION_DOT":1.39e-6,"MEAN_MOTION_DDOT":0},{"OBJECT_NAME":"ONEWEB-0401","OBJECT_ID":"2021-132N","EPOCH":"2026-03-18T07:19:13.716768","MEAN_MOTION":13.18685775,"ECCENTRICITY":0.00017603,"INCLINATION":87.9255,"RA_OF_ASC_NODE":353.4926,"ARG_OF_PERICENTER":84.2834,"MEAN_ANOMALY":275.8499,"EPHEMERIS_TYPE":0,"CLASSIFICATION_TYPE":"U","NORAD_CAT_ID":50481,"ELEMENT_SET_NO":999,"REV_AT_EPOCH":20963,"BSTAR":7.126758e-6,"MEAN_MOTION_DOT":1.6e-7,"MEAN_MOTION_DDOT":0},{"OBJECT_NAME":"ONEWEB-0402","OBJECT_ID":"2021-132P","EPOCH":"2026-03-18T06:26:57.639552","MEAN_MOTION":13.18684806,"ECCENTRICITY":0.00015873,"INCLINATION":87.9252,"RA_OF_ASC_NODE":353.4911,"ARG_OF_PERICENTER":94.7945,"MEAN_ANOMALY":265.3368,"EPHEMERIS_TYPE":0,"CLASSIFICATION_TYPE":"U","NORAD_CAT_ID":50482,"ELEMENT_SET_NO":999,"REV_AT_EPOCH":20965,"BSTAR":6.8037693e-5,"MEAN_MOTION_DOT":4.0e-7,"MEAN_MOTION_DDOT":0},{"OBJECT_NAME":"ONEWEB-0403","OBJECT_ID":"2021-132Q","EPOCH":"2026-03-18T07:02:36.538080","MEAN_MOTION":13.18686978,"ECCENTRICITY":0.00017608,"INCLINATION":87.9254,"RA_OF_ASC_NODE":353.5094,"ARG_OF_PERICENTER":74.8772,"MEAN_ANOMALY":285.2555,"EPHEMERIS_TYPE":0,"CLASSIFICATION_TYPE":"U","NORAD_CAT_ID":50483,"ELEMENT_SET_NO":999,"REV_AT_EPOCH":20961,"BSTAR":9.8211457e-5,"MEAN_MOTION_DOT":5.2e-7,"MEAN_MOTION_DDOT":0},{"OBJECT_NAME":"ONEWEB-0404","OBJECT_ID":"2021-132R","EPOCH":"2026-03-18T03:45:51.693984","MEAN_MOTION":13.11417406,"ECCENTRICITY":0.00017045,"INCLINATION":87.8876,"RA_OF_ASC_NODE":39.1653,"ARG_OF_PERICENTER":72.3124,"MEAN_ANOMALY":287.819,"EPHEMERIS_TYPE":0,"CLASSIFICATION_TYPE":"U","NORAD_CAT_ID":50484,"ELEMENT_SET_NO":999,"REV_AT_EPOCH":20376,"BSTAR":-0.0019328394,"MEAN_MOTION_DOT":-6.72e-6,"MEAN_MOTION_DDOT":0},{"OBJECT_NAME":"ONEWEB-0405","OBJECT_ID":"2021-132S","EPOCH":"2026-03-18T03:45:27.247968","MEAN_MOTION":13.18685652,"ECCENTRICITY":0.0002267,"INCLINATION":87.9254,"RA_OF_ASC_NODE":353.5205,"ARG_OF_PERICENTER":71.0051,"MEAN_ANOMALY":289.1327,"EPHEMERIS_TYPE":0,"CLASSIFICATION_TYPE":"U","NORAD_CAT_ID":50485,"ELEMENT_SET_NO":999,"REV_AT_EPOCH":20999,"BSTAR":0.00013775776,"MEAN_MOTION_DOT":6.7e-7,"MEAN_MOTION_DDOT":0},{"OBJECT_NAME":"ONEWEB-0406","OBJECT_ID":"2021-132T","EPOCH":"2026-03-18T07:09:43.514784","MEAN_MOTION":13.18686389,"ECCENTRICITY":0.00015294,"INCLINATION":87.9244,"RA_OF_ASC_NODE":353.517,"ARG_OF_PERICENTER":64.6952,"MEAN_ANOMALY":295.4339,"EPHEMERIS_TYPE":0,"CLASSIFICATION_TYPE":"U","NORAD_CAT_ID":50486,"ELEMENT_SET_NO":999,"REV_AT_EPOCH":20964,"BSTAR":0.00016602547,"MEAN_MOTION_DOT":7.8e-7,"MEAN_MOTION_DDOT":0},{"OBJECT_NAME":"ONEWEB-0407","OBJECT_ID":"2021-132U","EPOCH":"2026-03-18T07:00:13.975488","MEAN_MOTION":13.18686314,"ECCENTRICITY":0.00018794,"INCLINATION":87.9254,"RA_OF_ASC_NODE":353.5026,"ARG_OF_PERICENTER":83.2466,"MEAN_ANOMALY":276.888,"EPHEMERIS_TYPE":0,"CLASSIFICATION_TYPE":"U","NORAD_CAT_ID":50487,"ELEMENT_SET_NO":999,"REV_AT_EPOCH":20958,"BSTAR":0.00010624459,"MEAN_MOTION_DOT":5.5e-7,"MEAN_MOTION_DDOT":0},{"OBJECT_NAME":"ONEWEB-0409","OBJECT_ID":"2021-132V","EPOCH":"2026-03-18T07:23:08.926944","MEAN_MOTION":13.11415908,"ECCENTRICITY":0.00018088,"INCLINATION":87.8886,"RA_OF_ASC_NODE":39.1167,"ARG_OF_PERICENTER":72.561,"MEAN_ANOMALY":287.5715,"EPHEMERIS_TYPE":0,"CLASSIFICATION_TYPE":"U","NORAD_CAT_ID":50488,"ELEMENT_SET_NO":999,"REV_AT_EPOCH":20367,"BSTAR":-0.0012959526,"MEAN_MOTION_DOT":-4.47e-6,"MEAN_MOTION_DDOT":0},{"OBJECT_NAME":"ONEWEB-0412","OBJECT_ID":"2021-132W","EPOCH":"2026-03-18T06:43:36.314688","MEAN_MOTION":13.18685699,"ECCENTRICITY":0.00016372,"INCLINATION":87.9252,"RA_OF_ASC_NODE":353.5182,"ARG_OF_PERICENTER":86.3962,"MEAN_ANOMALY":273.7357,"EPHEMERIS_TYPE":0,"CLASSIFICATION_TYPE":"U","NORAD_CAT_ID":50489,"ELEMENT_SET_NO":999,"REV_AT_EPOCH":20967,"BSTAR":0.00021995582,"MEAN_MOTION_DOT":1.0e-6,"MEAN_MOTION_DDOT":0},{"OBJECT_NAME":"ONEWEB-0413","OBJECT_ID":"2021-132X","EPOCH":"2026-03-18T06:50:43.948032","MEAN_MOTION":13.18686538,"ECCENTRICITY":0.00018433,"INCLINATION":87.9241,"RA_OF_ASC_NODE":353.521,"ARG_OF_PERICENTER":88.5391,"MEAN_ANOMALY":271.5952,"EPHEMERIS_TYPE":0,"CLASSIFICATION_TYPE":"U","NORAD_CAT_ID":50490,"ELEMENT_SET_NO":999,"REV_AT_EPOCH":20961,"BSTAR":-5.3439374e-5,"MEAN_MOTION_DOT":-8.0e-8,"MEAN_MOTION_DDOT":0},{"OBJECT_NAME":"ONEWEB-0414","OBJECT_ID":"2021-132Y","EPOCH":"2026-03-18T06:29:19.891968","MEAN_MOTION":13.18685905,"ECCENTRICITY":0.00016441,"INCLINATION":87.9254,"RA_OF_ASC_NODE":353.4963,"ARG_OF_PERICENTER":80.9461,"MEAN_ANOMALY":279.1857,"EPHEMERIS_TYPE":0,"CLASSIFICATION_TYPE":"U","NORAD_CAT_ID":50491,"ELEMENT_SET_NO":999,"REV_AT_EPOCH":20964,"BSTAR":0.00013885594,"MEAN_MOTION_DOT":6.8e-7,"MEAN_MOTION_DDOT":0},{"OBJECT_NAME":"ONEWEB-0417","OBJECT_ID":"2021-132Z","EPOCH":"2026-03-18T06:41:13.100640","MEAN_MOTION":13.18684947,"ECCENTRICITY":0.00017167,"INCLINATION":87.9247,"RA_OF_ASC_NODE":353.5219,"ARG_OF_PERICENTER":71.3566,"MEAN_ANOMALY":288.7752,"EPHEMERIS_TYPE":0,"CLASSIFICATION_TYPE":"U","NORAD_CAT_ID":50492,"ELEMENT_SET_NO":999,"REV_AT_EPOCH":20962,"BSTAR":0.00014136246,"MEAN_MOTION_DOT":6.9e-7,"MEAN_MOTION_DDOT":0},{"OBJECT_NAME":"ONEWEB-0418","OBJECT_ID":"2021-132AA","EPOCH":"2026-03-18T06:55:16.965120","MEAN_MOTION":13.1868572,"ECCENTRICITY":0.00016671,"INCLINATION":87.9252,"RA_OF_ASC_NODE":353.511,"ARG_OF_PERICENTER":66.2093,"MEAN_ANOMALY":293.9214,"EPHEMERIS_TYPE":0,"CLASSIFICATION_TYPE":"U","NORAD_CAT_ID":50493,"ELEMENT_SET_NO":999,"REV_AT_EPOCH":20968,"BSTAR":0.00013881634,"MEAN_MOTION_DOT":6.8e-7,"MEAN_MOTION_DDOT":0}]
